[{"OBJECT_NAME":"STARLINK-31259","OBJECT_ID":"2024-041C","EPOCH":"2026-03-09T02:05:56.246784","MEAN_MOTION":15.2757306,"ECCENTRICITY":0.00012535,"INCLINATION":43.0014,"RA_OF_ASC_NODE":313.7493,"ARG_OF_PERICENTER":278.0582,"MEAN_ANOMALY":82.0128,"EPHEMERIS_TYPE":0,"CLASSIFICATION_TYPE":"U","NORAD_CAT_ID":59076,"ELEMENT_SET_NO":999,"REV_AT_EPOCH":11313,"BSTAR":-3.1083388e-5,"MEAN_MOTION_DOT":-1.117e-5,"MEAN_MOTION_DDOT":0},{"OBJECT_NAME":"HAWK-11A","OBJECT_ID":"2024-247F","EPOCH":"2026-03-09T12:17:43.893312","MEAN_MOTION":15.28849427,"ECCENTRICITY":0.00054663,"INCLINATION":44.9941,"RA_OF_ASC_NODE":114.3328,"ARG_OF_PERICENTER":327.3713,"MEAN_ANOMALY":32.6832,"EPHEMERIS_TYPE":0,"CLASSIFICATION_TYPE":"U","NORAD_CAT_ID":62382,"ELEMENT_SET_NO":999,"REV_AT_EPOCH":6774,"BSTAR":0.00034106017,"MEAN_MOTION_DOT":9.457e-5,"MEAN_MOTION_DDOT":0}]
